{
  "type": "FeatureCollection",
  "features": [
    {
      "type": "Feature",
      "properties": {
        "norad_id": 34434,
        "name": "COSMOS 2251 DEB",
        "group": "cosmos-2251-debris",
        "lat": -44.13556877185304,
        "lon": -2.129986757517274,
        "alt_km": 1126.489993611216,
        "timestamp": "2025-12-10T11:33:53.778349+00:00",
        "meta_object_name": "COSMOS 2251 DEB",
        "meta_object_id": "1993-036SB",
        "meta_epoch": "2025-12-09T20:31:05.558880",
        "meta_mean_motion": 13.89781888,
        "meta_eccentricity": 0.0275528,
        "meta_inclination": 74.0631,
        "meta_ra_of_asc_node": 15.0312,
        "meta_arg_of_pericenter": 153.0228,
        "meta_mean_anomaly": 264.1058,
        "meta_ephemeris_type": 0,
        "meta_classification_type": "U",
        "meta_norad_cat_id": 34434,
        "meta_element_set_no": 999,
        "meta_rev_at_epoch": 83926,
        "meta_bstar": 0.003641,
        "meta_mean_motion_dot": 6.052e-05,
        "meta_mean_motion_ddot": 0,
        "tle_line1": "1 34434U 93036SB  25343.85492545  .00006052  00000+0  36410-2 0  9996",
        "tle_line2": "2 34434  74.0631  15.0312 0275528 153.0228 264.1058 13.89781888839268"
      },
      "geometry": {
        "type": "Point",
        "coordinates": [
          -2.129986757517274,
          -44.13556877185304
        ]
      }
    },
    {
      "type": "Feature",
      "properties": {
        "norad_id": 34446,
        "name": "COSMOS 2251 DEB",
        "group": "cosmos-2251-debris",
        "lat": 14.80152118121775,
        "lon": 65.85203031424857,
        "alt_km": 764.6188288035664,
        "timestamp": "2025-12-10T11:33:53.778359+00:00",
        "meta_object_name": "COSMOS 2251 DEB",
        "meta_object_id": "1993-036SP",
        "meta_epoch": "2025-12-10T04:52:01.047360",
        "meta_mean_motion": 14.49348172,
        "meta_eccentricity": 0.0051277,
        "meta_inclination": 74.0423,
        "meta_ra_of_asc_node": 62.039,
        "meta_arg_of_pericenter": 200.6498,
        "meta_mean_anomaly": 159.2591,
        "meta_ephemeris_type": 0,
        "meta_classification_type": "U",
        "meta_norad_cat_id": 34446,
        "meta_element_set_no": 999,
        "meta_rev_at_epoch": 88657,
        "meta_bstar": 0.00022836,
        "meta_mean_motion_dot": 8.58e-06,
        "meta_mean_motion_ddot": 0,
        "tle_line1": "1 34446U 93036SP  25344.20278990  .00000858  00000+0  22836-3 0  9991",
        "tle_line2": "2 34446  74.0423  62.0390 0051277 200.6498 159.2591 14.49348172886573"
      },
      "geometry": {
        "type": "Point",
        "coordinates": [
          65.85203031424857,
          14.80152118121775
        ]
      }
    },
    {
      "type": "Feature",
      "properties": {
        "norad_id": 34449,
        "name": "COSMOS 2251 DEB",
        "group": "cosmos-2251-debris",
        "lat": 25.00539726131547,
        "lon": -112.56256924789291,
        "alt_km": 568.8692999216528,
        "timestamp": "2025-12-10T11:33:53.778368+00:00",
        "meta_object_name": "COSMOS 2251 DEB",
        "meta_object_id": "1993-036SS",
        "meta_epoch": "2025-12-09T07:49:17.409216",
        "meta_mean_motion": 14.94544215,
        "meta_eccentricity": 0.0023566,
        "meta_inclination": 74.0323,
        "meta_ra_of_asc_node": 77.4414,
        "meta_arg_of_pericenter": 122.2048,
        "meta_mean_anomaly": 294.3204,
        "meta_ephemeris_type": 0,
        "meta_classification_type": "U",
        "meta_norad_cat_id": 34449,
        "meta_element_set_no": 999,
        "meta_rev_at_epoch": 88642,
        "meta_bstar": 0.0039384,
        "meta_mean_motion_dot": 0.00043038,
        "meta_mean_motion_ddot": 0,
        "tle_line1": "1 34449U 93036SS  25343.32589594  .00043038  00000+0  39384-2 0  9993",
        "tle_line2": "2 34449  74.0323  77.4414 0023566 122.2048 294.3204 14.94544215886424"
      },
      "geometry": {
        "type": "Point",
        "coordinates": [
          -112.56256924789291,
          25.00539726131547
        ]
      }
    },
    {
      "type": "Feature",
      "properties": {
        "norad_id": 34451,
        "name": "COSMOS 2251 DEB",
        "group": "cosmos-2251-debris",
        "lat": 57.12343039890721,
        "lon": -113.84447946461657,
        "alt_km": 558.4767085062822,
        "timestamp": "2025-12-10T11:33:53.778378+00:00",
        "meta_object_name": "COSMOS 2251 DEB",
        "meta_object_id": "1993-036SU",
        "meta_epoch": "2025-12-09T17:22:22.164960",
        "meta_mean_motion": 14.95270196,
        "meta_eccentricity": 0.0024545,
        "meta_inclination": 74.0466,
        "meta_ra_of_asc_node": 93.9517,
        "meta_arg_of_pericenter": 115.9836,
        "meta_mean_anomaly": 244.3881,
        "meta_ephemeris_type": 0,
        "meta_classification_type": "U",
        "meta_norad_cat_id": 34451,
        "meta_element_set_no": 999,
        "meta_rev_at_epoch": 88590,
        "meta_bstar": 0.0041463,
        "meta_mean_motion_dot": 0.000462,
        "meta_mean_motion_ddot": 0,
        "tle_line1": "1 34451U 93036SU  25343.72386765  .00046200  00000+0  41463-2 0  9990",
        "tle_line2": "2 34451  74.0466  93.9517 0024545 115.9836 244.3881 14.95270196885907"
      },
      "geometry": {
        "type": "Point",
        "coordinates": [
          -113.84447946461657,
          57.12343039890721
        ]
      }
    },
    {
      "type": "Feature",
      "properties": {
        "norad_id": 34452,
        "name": "COSMOS 2251 DEB",
        "group": "cosmos-2251-debris",
        "lat": 70.11842378758851,
        "lon": -120.17365113245478,
        "alt_km": 570.0495695347645,
        "timestamp": "2025-12-10T11:33:53.778389+00:00",
        "meta_object_name": "COSMOS 2251 DEB",
        "meta_object_id": "1993-036SV",
        "meta_epoch": "2025-12-09T18:18:49.197024",
        "meta_mean_motion": 15.11555323,
        "meta_eccentricity": 0.0066733,
        "meta_inclination": 74.0362,
        "meta_ra_of_asc_node": 188.9797,
        "meta_arg_of_pericenter": 265.973,
        "meta_mean_anomaly": 222.1832,
        "meta_ephemeris_type": 0,
        "meta_classification_type": "U",
        "meta_norad_cat_id": 34452,
        "meta_element_set_no": 999,
        "meta_rev_at_epoch": 90617,
        "meta_bstar": 0.0010451,
        "meta_mean_motion_dot": 0.00018711,
        "meta_mean_motion_ddot": 0,
        "tle_line1": "1 34452U 93036SV  25343.76306941  .00018711  00000+0  10451-2 0  9992",
        "tle_line2": "2 34452  74.0362 188.9797 0066733 265.9730 222.1832 15.11555323906172"
      },
      "geometry": {
        "type": "Point",
        "coordinates": [
          -120.17365113245478,
          70.11842378758851
        ]
      }
    },
    {
      "type": "Feature",
      "properties": {
        "norad_id": 34453,
        "name": "COSMOS 2251 DEB",
        "group": "cosmos-2251-debris",
        "lat": 66.60969769712356,
        "lon": -116.84051918458293,
        "alt_km": 341.9202873491922,
        "timestamp": "2025-12-10T11:33:53.778399+00:00",
        "meta_object_name": "COSMOS 2251 DEB",
        "meta_object_id": "1993-036SW",
        "meta_epoch": "2025-12-10T00:26:39.677856",
        "meta_mean_motion": 15.74627952,
        "meta_eccentricity": 0.0022372,
        "meta_inclination": 74.1083,
        "meta_ra_of_asc_node": 105.4107,
        "meta_arg_of_pericenter": 342.792,
        "meta_mean_anomaly": 17.2545,
        "meta_ephemeris_type": 0,
        "meta_classification_type": "U",
        "meta_norad_cat_id": 34453,
        "meta_element_set_no": 999,
        "meta_rev_at_epoch": 88824,
        "meta_bstar": 0.014245,
        "meta_mean_motion_dot": 0.02439797,
        "meta_mean_motion_ddot": 0,
        "tle_line1": "1 34453U 93036SW  25344.01851479  .02439797  00000+0  14245-1 0  9990",
        "tle_line2": "2 34453  74.1083 105.4107 0022372 342.7920  17.2545 15.74627952888247"
      },
      "geometry": {
        "type": "Point",
        "coordinates": [
          -116.84051918458293,
          66.60969769712356
        ]
      }
    },
    {
      "type": "Feature",
      "properties": {
        "norad_id": 34454,
        "name": "COSMOS 2251 DEB",
        "group": "cosmos-2251-debris",
        "lat": -16.066758346760647,
        "lon": -82.92591422553832,
        "alt_km": 741.5772958830412,
        "timestamp": "2025-12-10T11:33:53.778409+00:00",
        "meta_object_name": "COSMOS 2251 DEB",
        "meta_object_id": "1993-036SX",
        "meta_epoch": "2025-12-09T12:16:47.341056",
        "meta_mean_motion": 14.38800683,
        "meta_eccentricity": 0.0035474,
        "meta_inclination": 74.0587,
        "meta_ra_of_asc_node": 283.582,
        "meta_arg_of_pericenter": 346.7462,
        "meta_mean_anomaly": 13.2757,
        "meta_ephemeris_type": 0,
        "meta_classification_type": "U",
        "meta_norad_cat_id": 34454,
        "meta_element_set_no": 999,
        "meta_rev_at_epoch": 88021,
        "meta_bstar": 0.00048743,
        "meta_mean_motion_dot": 1.483e-05,
        "meta_mean_motion_ddot": 0,
        "tle_line1": "1 34454U 93036SX  25343.51165904  .00001483  00000+0  48743-3 0  9993",
        "tle_line2": "2 34454  74.0587 283.5820 0035474 346.7462  13.2757 14.38800683880211"
      },
      "geometry": {
        "type": "Point",
        "coordinates": [
          -82.92591422553832,
          -16.066758346760647
        ]
      }
    }
  ]
}